{"900001":{"id":900001,"name":"GEMS","name_cn":"钻石","name_en":"GEMS","isOpen":1,"desc_cn":"","desc_en":"","qlv":5,"num":1,"maxnum":10,"atlas":"Item","icon":"10001"},"900002":{"id":900002,"name":"COINS","name_cn":"金币","name_en":"COINS","isOpen":1,"desc_cn":"","desc_en":"","qlv":5,"num":1,"maxnum":10,"atlas":"Item","icon":"10002"},"900003":{"id":900003,"name":"TEAM EXP","name_cn":"球队经验","name_en":"TEAM EXP","isOpen":1,"desc_cn":"","desc_en":"","qlv":5,"num":1,"maxnum":10,"atlas":"Item","icon":"20003"},"900004":{"id":900004,"name":"TEAM LEVEL","name_cn":"球队等级","name_en":"TEAM LEVEL","isOpen":1,"desc_cn":"","desc_en":"","qlv":5,"num":1,"maxnum":100,"atlas":"Item","icon":"20003"},"900005":{"id":900005,"name":"ENHANCE CARD","name_cn":"强化卡","name_en":"ENHANCE CARD","isOpen":1,"desc_cn":"","desc_en":"","qlv":4,"num":1,"maxnum":1000,"atlas":"Item","icon":"20003"},"900006":{"id":900006,"name":"ENHANCE CARD PRO","name_cn":"高级强化卡","name_en":"ENHANCE CARD PRO","isOpen":1,"desc_cn":"","desc_en":"","qlv":5,"num":1,"maxnum":10000,"atlas":"Item","icon":"20003"},"900007":{"id":900007,"name":"COMPETITIVE COIN","name_cn":"竞技币","name_en":"COMPETITIVE COIN","isOpen":1,"desc_cn":"","desc_en":"","qlv":5,"num":1,"maxnum":10000,"atlas":"Item","icon":"20003"},"901001":{"id":901001,"name":"Random Player","name_cn":"随机球员","name_en":"Random Player","isOpen":0,"desc_cn":"","desc_en":"","qlv":5,"num":1,"maxnum":1,"atlas":"Item","icon":"cardicon04"},"901002":{"id":901002,"name":"Random Player","name_cn":"随机球员","name_en":"Random Player","isOpen":0,"desc_cn":"","desc_en":"","qlv":5,"num":1,"maxnum":1,"atlas":"Item","icon":"cardicon04"},"901003":{"id":901003,"name":"Random Player","name_cn":"随机球员","name_en":"Random Player","isOpen":0,"desc_cn":"","desc_en":"","qlv":5,"num":1,"maxnum":1,"atlas":"Item","icon":"cardicon04"},"901004":{"id":901004,"name":"Random Player","name_cn":"随机球员","name_en":"Random Player","isOpen":0,"desc_cn":"","desc_en":"","qlv":5,"num":1,"maxnum":1,"atlas":"Item","icon":"cardicon04"},"901011":{"id":901011,"name":"Random Player","name_cn":"随机球员","name_en":"Random Player","isOpen":0,"desc_cn":"","desc_en":"","qlv":6,"num":1,"maxnum":1,"atlas":"Item","icon":"cardicon05"},"901012":{"id":901012,"name":"Random Player","name_cn":"随机球员","name_en":"Random Player","isOpen":0,"desc_cn":"","desc_en":"","qlv":6,"num":1,"maxnum":1,"atlas":"Item","icon":"cardicon05"},"901013":{"id":901013,"name":"Random Player","name_cn":"随机球员","name_en":"Random Player","isOpen":0,"desc_cn":"","desc_en":"","qlv":6,"num":1,"maxnum":1,"atlas":"Item","icon":"cardicon05"},"901014":{"id":901014,"name":"Random Player","name_cn":"随机球员","name_en":"Random Player","isOpen":0,"desc_cn":"","desc_en":"","qlv":6,"num":1,"maxnum":1,"atlas":"Item","icon":"cardicon05"},"901015":{"id":901015,"name":"Random Player","name_cn":"随机球员","name_en":"Random Player","isOpen":0,"desc_cn":"","desc_en":"","qlv":6,"num":1,"maxnum":1,"atlas":"Item","icon":"cardicon05"},"901021":{"id":901021,"name":"88+Player","name_cn":"88+球员","name_en":"88+Player","isOpen":0,"desc_cn":"","desc_en":"","qlv":5,"num":1,"maxnum":1,"atlas":"Item","icon":"cardicon04"},"901022":{"id":901022,"name":"87-88Player","name_cn":"87-88球员","name_en":"87-88Player","isOpen":0,"desc_cn":"","desc_en":"","qlv":5,"num":1,"maxnum":1,"atlas":"Item","icon":"cardicon04"},"901023":{"id":901023,"name":"87Player","name_cn":"87球员","name_en":"87Player","isOpen":0,"desc_cn":"","desc_en":"","qlv":5,"num":1,"maxnum":1,"atlas":"Item","icon":"cardicon04"},"901024":{"id":901024,"name":"86-87Player","name_cn":"86-87球员","name_en":"86-87Player","isOpen":0,"desc_cn":"","desc_en":"","qlv":5,"num":1,"maxnum":1,"atlas":"Item","icon":"cardicon04"},"901025":{"id":901025,"name":"86Player","name_cn":"86球员","name_en":"86Player","isOpen":0,"desc_cn":"","desc_en":"","qlv":5,"num":1,"maxnum":1,"atlas":"Item","icon":"cardicon04"},"901026":{"id":901026,"name":"85-86Player","name_cn":"85-86球员","name_en":"85-86Player","isOpen":0,"desc_cn":"","desc_en":"","qlv":5,"num":1,"maxnum":1,"atlas":"Item","icon":"cardicon04"},"901027":{"id":901027,"name":"85Player","name_cn":"85球员","name_en":"85Player","isOpen":0,"desc_cn":"","desc_en":"","qlv":5,"num":1,"maxnum":1,"atlas":"Item","icon":"cardicon04"},"901028":{"id":901028,"name":"84-85Player","name_cn":"84-85球员","name_en":"84-85Player","isOpen":0,"desc_cn":"","desc_en":"","qlv":5,"num":1,"maxnum":1,"atlas":"Item","icon":"cardicon04"},"901029":{"id":901029,"name":"84Player","name_cn":"84球员","name_en":"84Player","isOpen":0,"desc_cn":"","desc_en":"","qlv":5,"num":1,"maxnum":1,"atlas":"Item","icon":"cardicon04"},"901030":{"id":901030,"name":"83Player","name_cn":"83球员","name_en":"83Player","isOpen":0,"desc_cn":"","desc_en":"","qlv":5,"num":1,"maxnum":1,"atlas":"Item","icon":"cardicon04"},"901031":{"id":901031,"name":"82Player","name_cn":"82球员","name_en":"82Player","isOpen":0,"desc_cn":"","desc_en":"","qlv":5,"num":1,"maxnum":1,"atlas":"Item","icon":"cardicon04"},"901032":{"id":901032,"name":"81Player","name_cn":"81球员","name_en":"81Player","isOpen":0,"desc_cn":"","desc_en":"","qlv":5,"num":1,"maxnum":1,"atlas":"Item","icon":"cardicon04"},"901033":{"id":901033,"name":"80Player","name_cn":"80球员","name_en":"80Player","isOpen":0,"desc_cn":"","desc_en":"","qlv":5,"num":1,"maxnum":1,"atlas":"Item","icon":"cardicon04"},"901034":{"id":901034,"name":"Random Player","name_cn":"随机球员","name_en":"Random Player","isOpen":0,"desc_cn":"","desc_en":"","qlv":4,"num":1,"maxnum":1,"atlas":"Item","icon":"cardicon03"},"901041":{"id":901041,"name":"Random Player","name_cn":"随机球员","name_en":"Random Player","isOpen":0,"desc_cn":"","desc_en":"","qlv":5,"num":1,"maxnum":1,"atlas":"Item","icon":"cardicon04"},"901042":{"id":901042,"name":"Random Player","name_cn":"随机球员","name_en":"Random Player","isOpen":0,"desc_cn":"","desc_en":"","qlv":5,"num":1,"maxnum":1,"atlas":"Item","icon":"cardicon04"},"901043":{"id":901043,"name":"Random Player","name_cn":"随机球员","name_en":"Random Player","isOpen":0,"desc_cn":"","desc_en":"","qlv":5,"num":1,"maxnum":1,"atlas":"Item","icon":"cardicon04"},"901044":{"id":901044,"name":"Random Player","name_cn":"随机球员","name_en":"Random Player","isOpen":0,"desc_cn":"","desc_en":"","qlv":5,"num":1,"maxnum":1,"atlas":"Item","icon":"cardicon04"},"901050":{"id":901050,"name":"83-86Player","name_cn":"83-86球员","name_en":"83-86Player","isOpen":0,"desc_cn":"","desc_en":"","qlv":5,"num":1,"maxnum":1,"atlas":"Item","icon":"cardicon04"},"901051":{"id":901051,"name":"Random Player","name_cn":"随机球员","name_en":"Random Player","isOpen":0,"desc_cn":"","desc_en":"","qlv":5,"num":1,"maxnum":1,"atlas":"Item","icon":"cardicon04"},"901052":{"id":901052,"name":"Random Player","name_cn":"随机球员","name_en":"Random Player","isOpen":0,"desc_cn":"","desc_en":"","qlv":4,"num":1,"maxnum":1,"atlas":"Item","icon":"cardicon03"},"901053":{"id":901053,"name":"Random Player","name_cn":"随机球员","name_en":"Random Player","isOpen":0,"desc_cn":"","desc_en":"","qlv":5,"num":1,"maxnum":1,"atlas":"Item","icon":"cardicon04"},"901061":{"id":901061,"name":"German Player","name_cn":"德国卡包","name_en":"German Player","isOpen":0,"desc_cn":"","desc_en":"","qlv":6,"num":1,"maxnum":1,"atlas":"Item","icon":"cardicon05"},"901062":{"id":901062,"name":"Spain Player","name_cn":"西班牙卡包","name_en":"Spain Player","isOpen":0,"desc_cn":"","desc_en":"","qlv":6,"num":1,"maxnum":1,"atlas":"Item","icon":"cardicon05"},"901063":{"id":901063,"name":"Italy Player","name_cn":"意大利卡包","name_en":"Italy Player","isOpen":0,"desc_cn":"","desc_en":"","qlv":6,"num":1,"maxnum":1,"atlas":"Item","icon":"cardicon05"},"901064":{"id":901064,"name":"French Player","name_cn":"法国卡包","name_en":"French Player","isOpen":0,"desc_cn":"","desc_en":"","qlv":6,"num":1,"maxnum":1,"atlas":"Item","icon":"cardicon05"},"901065":{"id":901065,"name":"England Player","name_cn":"英格兰卡包","name_en":"England Player","isOpen":0,"desc_cn":"","desc_en":"","qlv":6,"num":1,"maxnum":1,"atlas":"Item","icon":"cardicon05"},"901066":{"id":901066,"name":"Brazil Player","name_cn":"巴西卡包","name_en":"Brazil Player","isOpen":0,"desc_cn":"","desc_en":"","qlv":6,"num":1,"maxnum":1,"atlas":"Item","icon":"cardicon05"},"901067":{"id":901067,"name":"Argentina Player","name_cn":"阿根廷卡包","name_en":"Argentina Player","isOpen":0,"desc_cn":"","desc_en":"","qlv":6,"num":1,"maxnum":1,"atlas":"Item","icon":"cardicon05"}}